start=new Date('2022-12-15T00:00:00.000Z').valueOf();
sats=[{"EPHEMERIS_TYPE":"0","EPOCH":"2022-12-14T17:34:47.350272","REF_FRAME":"TEME","CLASSIFICATION_TYPE":"U","TIME_SYSTEM":"UTC","ECCENTRICITY":"0.00007030","MEAN_MOTION_DOT":"-0.00000599","RCS_SIZE":"LARGE","ELEMENT_SET_NO":"999","TLE_LINE2":"2 53216  97.6566  47.4176 0000703  71.4810 288.6490 15.01270649 22138","FILE":"3699647","TLE_LINE1":"1 53216U 22084AD  22348.73249248 -.00000599  00000-0 -42022-4 0  9990","MEAN_ELEMENT_THEORY":"SGP4","APOAPSIS":"563.467","PERIAPSIS":"562.491","INCLINATION":"97.6566","GP_ID":"220411804","SEMIMAJOR_AXIS":"6941.114","DECAY_DATE":null,"COUNTRY_CODE":"US","MEAN_ANOMALY":"288.6490","OBJECT_NAME":"STARLINK-4376","LAUNCH_DATE":"2022-07-22","OBJECT_ID":"2022-084AD","REV_AT_EPOCH":"2213","BSTAR":"-0.00004202200000","ARG_OF_PERICENTER":"71.4810","MEAN_MOTION":"15.01270649","SITE":"AFWTR","RA_OF_ASC_NODE":"47.4176","CENTER_NAME":"EARTH","OBJECT_TYPE":"PAYLOAD","NORAD_CAT_ID":"53216","PERIOD":"95.919","MEAN_MOTION_DDOT":"0.0000000000000"},{"NORAD_CAT_ID":"53217","MEAN_MOTION_DDOT":"0.0000000000000","PERIOD":"95.921","OBJECT_TYPE":"PAYLOAD","SITE":"AFWTR","RA_OF_ASC_NODE":"47.4210","CENTER_NAME":"EARTH","BSTAR":"0.00003870700000","ARG_OF_PERICENTER":"50.0338","MEAN_MOTION":"15.01238931","REV_AT_EPOCH":"2213","LAUNCH_DATE":"2022-07-22","OBJECT_ID":"2022-084AE","OBJECT_NAME":"STARLINK-4379","MEAN_ANOMALY":"310.1083","SEMIMAJOR_AXIS":"6941.212","COUNTRY_CODE":"US","DECAY_DATE":null,"GP_ID":"220412627","PERIAPSIS":"561.519","INCLINATION":"97.6607","MEAN_ELEMENT_THEORY":"SGP4","APOAPSIS":"564.634","TLE_LINE1":"1 53217U 22084AE  22348.72349602  .00000438  00000-0  38707-4 0  9990","TLE_LINE2":"2 53217  97.6607  47.4210 0002244  50.0338 310.1083 15.01238931 22131","FILE":"3699647","ELEMENT_SET_NO":"999","MEAN_MOTION_DOT":"0.00000438","RCS_SIZE":"LARGE","ECCENTRICITY":"0.00022440","TIME_SYSTEM":"UTC","REF_FRAME":"TEME","CLASSIFICATION_TYPE":"U","EPHEMERIS_TYPE":"0","EPOCH":"2022-12-14T17:21:50.056128"},{"INCLINATION":"97.6556","PERIAPSIS":"562.290","DECAY_DATE":null,"COUNTRY_CODE":"US","SEMIMAJOR_AXIS":"6941.095","GP_ID":"220411158","OBJECT_ID":"2022-084AF","LAUNCH_DATE":"2022-07-22","MEAN_ANOMALY":"272.6345","OBJECT_NAME":"STARLINK-4384","MEAN_MOTION":"15.01276769","ARG_OF_PERICENTER":"87.4990","BSTAR":"0.00013924000000","REV_AT_EPOCH":"2265","OBJECT_TYPE":"PAYLOAD","RA_OF_ASC_NODE":"47.4163","CENTER_NAME":"EARTH","SITE":"AFWTR","PERIOD":"95.918","MEAN_MOTION_DDOT":"0.0000000000000","NORAD_CAT_ID":"53218","EPOCH":"2022-12-14T17:32:08.262816","EPHEMERIS_TYPE":"0","TIME_SYSTEM":"UTC","CLASSIFICATION_TYPE":"U","REF_FRAME":"TEME","RCS_SIZE":"LARGE","MEAN_MOTION_DOT":"0.00001731","ECCENTRICITY":"0.00009650","ELEMENT_SET_NO":"999","FILE":"3699647","TLE_LINE2":"2 53218  97.6556  47.4163 0000965  87.4990 272.6345 15.01276769 22659","MEAN_ELEMENT_THEORY":"SGP4","APOAPSIS":"563.630","TLE_LINE1":"1 53218U 22084AF  22348.73065119  .00001731  00000-0  13924-3 0  9990"},{"INCLINATION":"97.6603","PERIAPSIS":"561.510","SEMIMAJOR_AXIS":"6941.116","COUNTRY_CODE":"US","DECAY_DATE":null,"GP_ID":"220412013","LAUNCH_DATE":"2022-07-22","OBJECT_ID":"2022-084AG","MEAN_ANOMALY":"317.6893","OBJECT_NAME":"STARLINK-4373","BSTAR":"0.00001548800000","ARG_OF_PERICENTER":"42.4494","MEAN_MOTION":"15.01269948","REV_AT_EPOCH":"2213","OBJECT_TYPE":"PAYLOAD","SITE":"AFWTR","CENTER_NAME":"EARTH","RA_OF_ASC_NODE":"47.4275","NORAD_CAT_ID":"53219","PERIOD":"95.919","MEAN_MOTION_DDOT":"0.0000000000000","EPHEMERIS_TYPE":"0","EPOCH":"2022-12-14T17:16:07.552704","TIME_SYSTEM":"UTC","REF_FRAME":"TEME","CLASSIFICATION_TYPE":"U","MEAN_MOTION_DOT":"0.00000140","RCS_SIZE":"LARGE","ECCENTRICITY":"0.00021190","ELEMENT_SET_NO":"999","FILE":"3699647","TLE_LINE2":"2 53219  97.6603  47.4275 0002119  42.4494 317.6893 15.01269948 22132","APOAPSIS":"564.452","MEAN_ELEMENT_THEORY":"SGP4","TLE_LINE1":"1 53219U 22084AG  22348.71953186  .00000140  00000-0  15488-4 0  9990"},{"ECCENTRICITY":"0.00017470","MEAN_MOTION_DOT":"0.00001648","RCS_SIZE":"LARGE","REF_FRAME":"TEME","CLASSIFICATION_TYPE":"U","TIME_SYSTEM":"UTC","EPHEMERIS_TYPE":"0","EPOCH":"2022-12-14T17:24:07.763904","TLE_LINE1":"1 53220U 22084AH  22348.72508986  .00001648  00000-0  13281-3 0  9999","APOAPSIS":"564.193","MEAN_ELEMENT_THEORY":"SGP4","FILE":"3699647","TLE_LINE2":"2 53220  97.6602  47.4204 0001747  49.1091 311.0285 15.01270099 22657","ELEMENT_SET_NO":"999","REV_AT_EPOCH":"2265","BSTAR":"0.00013281000000","ARG_OF_PERICENTER":"49.1091","MEAN_MOTION":"15.01270099","MEAN_ANOMALY":"311.0285","OBJECT_NAME":"STARLINK-4363","LAUNCH_DATE":"2022-07-22","OBJECT_ID":"2022-084AH","GP_ID":"220411366","SEMIMAJOR_AXIS":"6941.116","COUNTRY_CODE":"US","DECAY_DATE":null,"INCLINATION":"97.6602","PERIAPSIS":"561.768","NORAD_CAT_ID":"53220","MEAN_MOTION_DDOT":"0.0000000000000","PERIOD":"95.919","SITE":"AFWTR","RA_OF_ASC_NODE":"47.4204","CENTER_NAME":"EARTH","OBJECT_TYPE":"PAYLOAD"},{"APOAPSIS":"564.732","MEAN_ELEMENT_THEORY":"SGP4","TLE_LINE1":"1 53221U 22084AJ  22348.71768427 -.00003985  00000-0 -30588-3 0  9994","TLE_LINE2":"2 53221  97.6597  47.4302 0002435  40.7663 319.3743 15.01250337 22133","FILE":"3699647","ELEMENT_SET_NO":"999","RCS_SIZE":"LARGE","MEAN_MOTION_DOT":"-0.00003985","ECCENTRICITY":"0.00024350","TIME_SYSTEM":"UTC","CLASSIFICATION_TYPE":"U","REF_FRAME":"TEME","EPOCH":"2022-12-14T17:13:27.920928","EPHEMERIS_TYPE":"0","MEAN_MOTION_DDOT":"0.0000000000000","PERIOD":"95.920","NORAD_CAT_ID":"53221","OBJECT_TYPE":"PAYLOAD","CENTER_NAME":"EARTH","RA_OF_ASC_NODE":"47.4302","SITE":"AFWTR","ARG_OF_PERICENTER":"40.7663","MEAN_MOTION":"15.01250337","BSTAR":"-0.00030588000000","REV_AT_EPOCH":"2213","OBJECT_ID":"2022-084AJ","LAUNCH_DATE":"2022-07-22","MEAN_ANOMALY":"319.3743","OBJECT_NAME":"STARLINK-4377","COUNTRY_CODE":"US","DECAY_DATE":null,"SEMIMAJOR_AXIS":"6941.177","GP_ID":"220412216","PERIAPSIS":"561.351","INCLINATION":"97.6597"},{"ELEMENT_SET_NO":"999","MEAN_ELEMENT_THEORY":"SGP4","APOAPSIS":"564.385","TLE_LINE1":"1 53222U 22084AK  22348.72323794  .00001445  00000-0  11707-3 0  9999","FILE":"3699647","TLE_LINE2":"2 53222  97.6612  47.4198 0001980  45.9188 314.2199 15.01260508 22138","EPHEMERIS_TYPE":"0","EPOCH":"2022-12-14T17:21:27.758016","MEAN_MOTION_DOT":"0.00001445","RCS_SIZE":"LARGE","ECCENTRICITY":"0.00019800","TIME_SYSTEM":"UTC","REF_FRAME":"TEME","CLASSIFICATION_TYPE":"U","OBJECT_TYPE":"PAYLOAD","SITE":"AFWTR","CENTER_NAME":"EARTH","RA_OF_ASC_NODE":"47.4198","NORAD_CAT_ID":"53222","PERIOD":"95.919","MEAN_MOTION_DDOT":"0.0000000000000","SEMIMAJOR_AXIS":"6941.145","COUNTRY_CODE":"US","DECAY_DATE":null,"GP_ID":"220411597","PERIAPSIS":"561.636","INCLINATION":"97.6612","BSTAR":"0.00011707000000","MEAN_MOTION":"15.01260508","ARG_OF_PERICENTER":"45.9188","REV_AT_EPOCH":"2213","LAUNCH_DATE":"2022-07-22","OBJECT_ID":"2022-084AK","OBJECT_NAME":"STARLINK-4381","MEAN_ANOMALY":"314.2199"},{"SITE":"AFWTR","CENTER_NAME":"EARTH","RA_OF_ASC_NODE":"47.4294","OBJECT_TYPE":"PAYLOAD","NORAD_CAT_ID":"53223","PERIOD":"95.918","MEAN_MOTION_DDOT":"0.0000000000000","PERIAPSIS":"561.334","INCLINATION":"97.6586","GP_ID":"220412425","SEMIMAJOR_AXIS":"6941.088","DECAY_DATE":null,"COUNTRY_CODE":"US","MEAN_ANOMALY":"328.2963","OBJECT_NAME":"STARLINK-4354","LAUNCH_DATE":"2022-07-22","OBJECT_ID":"2022-084AL","REV_AT_EPOCH":"2213","BSTAR":"-0.00008650300000","ARG_OF_PERICENTER":"31.8402","MEAN_MOTION":"15.01279106","ELEMENT_SET_NO":"999","TLE_LINE2":"2 53223  97.6586  47.4294 0002333  31.8402 328.2963 15.01279106 22130","FILE":"3699647","TLE_LINE1":"1 53223U 22084AL  22348.71583424 -.00001171  00000-0 -86503-4 0  9992","MEAN_ELEMENT_THEORY":"SGP4","APOAPSIS":"564.572","EPHEMERIS_TYPE":"0","EPOCH":"2022-12-14T17:10:48.078336","REF_FRAME":"TEME","CLASSIFICATION_TYPE":"U","TIME_SYSTEM":"UTC","ECCENTRICITY":"0.00023330","MEAN_MOTION_DOT":"-0.00001171","RCS_SIZE":"LARGE"},{"OBJECT_ID":"2022-084AM","LAUNCH_DATE":"2022-07-22","MEAN_ANOMALY":"315.9688","OBJECT_NAME":"STARLINK-4356","BSTAR":"-0.00017240000000","MEAN_MOTION":"15.01275016","ARG_OF_PERICENTER":"44.1718","REV_AT_EPOCH":"2213","PERIAPSIS":"561.384","INCLINATION":"97.6614","SEMIMAJOR_AXIS":"6941.101","COUNTRY_CODE":"US","DECAY_DATE":null,"GP_ID":"220411805","NORAD_CAT_ID":"53224","PERIOD":"95.918","MEAN_MOTION_DDOT":"0.0000000000000","OBJECT_TYPE":"PAYLOAD","SITE":"AFWTR","CENTER_NAME":"EARTH","RA_OF_ASC_NODE":"47.4243","TIME_SYSTEM":"UTC","REF_FRAME":"TEME","CLASSIFICATION_TYPE":"U","MEAN_MOTION_DOT":"-0.00002274","RCS_SIZE":"LARGE","ECCENTRICITY":"0.00022780","EPHEMERIS_TYPE":"0","EPOCH":"2022-12-14T17:18:47.924064","TLE_LINE2":"2 53224  97.6614  47.4243 0002278  44.1718 315.9688 15.01275016 22135","FILE":"3699647","APOAPSIS":"564.547","MEAN_ELEMENT_THEORY":"SGP4","TLE_LINE1":"1 53224U 22084AM  22348.72138801 -.00002274  00000-0 -17240-3 0  9995","ELEMENT_SET_NO":"999"},{"TIME_SYSTEM":"UTC","REF_FRAME":"TEME","CLASSIFICATION_TYPE":"U","MEAN_MOTION_DOT":"0.00001118","RCS_SIZE":"LARGE","ECCENTRICITY":"0.00025030","EPHEMERIS_TYPE":"0","EPOCH":"2022-12-14T17:05:28.282560","TLE_LINE2":"2 53225  97.6574  47.4276 0002503  33.6291 326.5092 15.01267239 22132","FILE":"3699647","APOAPSIS":"564.727","MEAN_ELEMENT_THEORY":"SGP4","TLE_LINE1":"1 53225U 22084AN  22348.71213290  .00001118  00000-0  91608-4 0  9996","ELEMENT_SET_NO":"999","LAUNCH_DATE":"2022-07-22","OBJECT_ID":"2022-084AN","MEAN_ANOMALY":"326.5092","OBJECT_NAME":"STARLINK-4358","BSTAR":"0.00009160800000","MEAN_MOTION":"15.01267239","ARG_OF_PERICENTER":"33.6291","REV_AT_EPOCH":"2213","PERIAPSIS":"561.252","INCLINATION":"97.6574","SEMIMAJOR_AXIS":"6941.125","COUNTRY_CODE":"US","DECAY_DATE":null,"GP_ID":"220412628","NORAD_CAT_ID":"53225","MEAN_MOTION_DDOT":"0.0000000000000","PERIOD":"95.919","OBJECT_TYPE":"PAYLOAD","SITE":"AFWTR","RA_OF_ASC_NODE":"47.4276","CENTER_NAME":"EARTH"}];
